IRIDIUM 155             
1 43573U 18061E   21250.45627817  .00000013  00000-0 -23517-5 0  9996
2 43573  86.3926  65.4224 0001583  81.6802 278.4573 14.34216991163425
IRIDIUM 154             
1 43574U 18061F   21250.43724617  .00000013  00000-0 -22869-5 0  9990
2 43574  86.3930  65.4808 0002270  89.0137 271.1319 14.34217145163471
IRIDIUM 163             
1 43575U 18061G   21250.76704578  .00000013  00000-0 -24468-5 0  9998
2 43575  86.3930  65.3111 0002233 102.9100 257.2346 14.34218262163490
IRIDIUM 156             
1 43576U 18061H   21250.46260527  .00000014  00000-0 -19793-5 0  9993
2 43576  86.3928  65.4438 0001740  97.2472 262.8922 14.34218481163441
IRIDIUM 164             
1 43577U 18061J   21250.44358817  .00000016  00000-0 -14752-5 0  9994
2 43577  86.3929  65.4656 0002222  92.4495 267.6956 14.34216927163480
IRIDIUM 159             
1 43578U 18061K   21250.76073843  .00000010  00000-0 -35153-5 0  9995
2 43578  86.3929  65.3061 0002309  90.0500 270.0960 14.34216857163493
IRIDIUM 180             
1 43922U 19002A   21250.55091731  .00000085  00000-0  23328-4 0  9998
2 43922  86.4025   2.2635 0003124  98.8912 261.2638 14.34219540139073
IRIDIUM 176             
1 43923U 19002B   21250.37951901  .00000192  00000-0  26503-4 0  9990
2 43923  86.6158   2.3687 0002390  92.3207 267.8283 14.72250801142687
IRIDIUM 168             
1 43924U 19002C   21250.54457348  .00000085  00000-0  23371-4 0  9997
2 43924  86.4027   2.2942 0002468  92.9591 267.1887 14.34218437139059
IRIDIUM 173             
1 43925U 19002D   21250.39235522  .00000081  00000-0  21837-4 0  9990
2 43925  86.4023   2.3176 0002394  95.1631 264.9838 14.34218250139014
IRIDIUM 169             
1 43926U 19002E   21250.48904773  .00000083  00000-0  20538-4 0  9991
2 43926  86.4243  33.8564 0003884 348.0576  12.0530 14.38603826139531
IRIDIUM 172             
1 43927U 19002F   21250.59530997  .00000091  00000-0  25361-4 0  9995
2 43927  86.4024   2.2355 0002488  95.2374 264.9106 14.34219717139055
IRIDIUM 175             
1 43928U 19002G   21250.57722914  .00000197  00000-0  27280-4 0  9995
2 43928  86.6160   2.1084 0002675 104.2651 255.8864 14.72254936142704
IRIDIUM 171             
1 43929U 19002H   21250.57629598  .00000082  00000-0  22297-4 0  9996
2 43929  86.4033   2.3559 0002449  92.4844 267.6632 14.34218089139046
IRIDIUM 170             
1 43930U 19002J   21250.58962191  .00000195  00000-0  27038-4 0  9991
2 43930  86.6157   2.2870 0002606  93.5024 266.6491 14.72254370142725
IRIDIUM 167             
1 43931U 19002K   21250.56992226  .00000085  00000-0  23350-4 0  9993
2 43931  86.4024   2.2530 0002924  96.2471 263.9058 14.34220404139048
